ONEWEB-0053             
1 45157U 20008AC  23279.41734981  .00000203  00000+0  54490-3 0  9991
2 45157  87.8871 231.8439 0001997  84.1408 275.9947 13.10368935179700
ONEWEB-0054             
1 45158U 20008AD  23279.37673779 -.00000165  00000+0 -50886-3 0  9998
2 45158  87.8874 231.8387 0001941  79.4624 280.6722 13.10377022179815
ONEWEB-0056             
1 45159U 20008AE  23279.43359001 -.00000484  00000+0 -14238-2 0  9999
2 45159  87.8872 231.8222 0002039  82.7041 277.4318 13.10367581179972
ONEWEB-0057             
1 45160U 20008AF  23278.90557354 -.00000544  00000+0 -15937-2 0  9997
2 45160  87.8875 231.9208 0002205  80.6464 279.4913 13.10370673179804
ONEWEB-0058             
1 45161U 20008AG  23279.42711518 -.00001675  00000+0 -48355-2 0  9996
2 45161  87.8876 231.8627 0002056  78.1649 281.9709 13.10353964180202
ONEWEB-0059             
1 45162U 20008AH  23279.42385245 -.00000165  00000+0 -50847-3 0  9994
2 45162  87.8871 231.8358 0002084  75.5191 284.6168 13.10366653180098
ONEWEB-0062             
1 45163U 20008AJ  23279.37509338 -.00000243  00000+0 -73373-3 0  9996
2 45163  87.8877 231.8332 0001871  80.7371 279.3968 13.10379626179965
ONEWEB-0065             
1 45164U 20008AK  23279.42870661 -.00000321  00000+0 -95670-3 0  9994
2 45164  87.8876 231.8173 0002032  83.8918 276.2441 13.10370924179659
